     3.04           N: GNSS NAV DATA    M: Mixed            RINEX VERSION / TYPE
CONVBIN 2.4.3                           20250917 060553 UTC PGM / RUN BY / DATE 
format: u-blox UBX                                          COMMENT             
log: D:\GPdata\9_17\NEW_1_fingure_9_17.ubx                  COMMENT             
                                                            END OF HEADER       
G10 2025 09 17 08 00 00 -.529506243765D-03 -.750333128963D-11  .000000000000D+00
      .530000000000D+02 -.656250000000D+00  .419267464173D-08 -.512907348467D+00
     -.670552253723D-07  .105040961644D-01  .248476862907D-05  .515364555740D+04
      .288000000000D+06 -.130385160446D-07  .840796400191D+00  .121071934700D-06
      .990681565018D+00  .345125000000D+03 -.231675876260D+01 -.826355849609D-08
     -.796461747257D-10  .100000000000D+01  .238400000000D+04  .000000000000D+00
      .200000000000D+01  .000000000000D+00  .232830643654D-08  .530000000000D+02
      .280866000000D+06  .400000000000D+01
G25 2025 09 17 08 00 00  .471352599561D-03 -.181898940355D-11  .000000000000D+00
      .640000000000D+02  .251875000000D+02  .519735934802D-08  .197648658917D+00
      .116229057312D-05  .124564055586D-01  .594742596149D-05  .515356757736D+04
      .288000000000D+06 -.130385160446D-06 -.233184537154D+01  .119209289551D-06
      .948030186954D+00  .262312500000D+03  .113028651631D+01 -.854571310611D-08
      .142148778210D-09  .100000000000D+01  .238400000000D+04  .000000000000D+00
      .200000000000D+01  .000000000000D+00  .558793544769D-08  .640000000000D+02
      .280866000000D+06  .400000000000D+01
G23 2025 09 17 08 00 00  .543924514204D-03  .579802872380D-11  .000000000000D+00
      .145000000000D+03  .150000000000D+02  .424196240905D-08  .652363471249D+00
      .819563865662D-06  .567737058736D-02  .215508043766D-05  .515367508507D+04
      .288000000000D+06  .521540641785D-07  .809503848090D+00  .186264514923D-07
      .985750597749D+00  .348125000000D+03 -.283055837991D+01 -.823141430002D-08
     -.778603860547D-10  .100000000000D+01  .238400000000D+04  .000000000000D+00
      .200000000000D+01  .000000000000D+00 -.838190317154D-08  .401000000000D+03
      .280866000000D+06  .400000000000D+01
G12 2025 09 17 08 00 00 -.599011778831D-03 -.102318153949D-11  .000000000000D+00
      .550000000000D+02  .190937500000D+02  .490984737199D-08  .218665926051D+00
      .741332769394D-06  .874545739498D-02  .582821667194D-05  .515362429810D+04
      .288000000000D+06 -.987201929092D-07 -.223986122863D+01 -.111758708954D-07
      .959708675147D+00  .267406250000D+03  .151992111086D+01 -.835999108433D-08
      .110718897601D-09  .100000000000D+01  .238400000000D+04  .000000000000D+00
      .280000000000D+01  .000000000000D+00 -.125728547573D-07  .550000000000D+02
      .280866000000D+06  .400000000000D+01
G32 2025 09 17 08 00 00 -.321730040014D-03  .137561073643D-10  .000000000000D+00
      .290000000000D+02 -.104687500000D+03  .426982071231D-08 -.179822091894D+01
     -.546127557755D-05  .866334675811D-02  .719726085663D-05  .515366051674D+04
      .288000000000D+06  .234693288803D-06  .187000519288D+01 -.782310962677D-07
      .965853792739D+00  .245156250000D+03 -.206034786043D+01 -.786068457192D-08
     -.237152735506D-09  .100000000000D+01  .238400000000D+04  .000000000000D+00
      .200000000000D+01  .000000000000D+00  .931322574615D-09  .290000000000D+02
      .280866000000D+06  .400000000000D+01
G28 2025 09 17 08 00 00 -.638523139060D-03  .113686837722D-12  .000000000000D+00
      .200000000000D+03 -.144062500000D+02  .418017412103D-08  .892554092198D+00
     -.633299350739D-06  .402911799029D-03  .106785446405D-04  .515368356514D+04
      .288000000000D+06 -.949949026108D-07  .289891267126D+01  .596046447754D-07
      .962057265775D+00  .173218750000D+03  .406327693819D+00 -.773960810003D-08
      .421803284086D-09  .100000000000D+01  .238400000000D+04  .000000000000D+00
      .200000000000D+01  .000000000000D+00 -.931322574615D-08  .200000000000D+03
      .280866000000D+06  .400000000000D+01
G15 2025 09 17 08 00 00  .339006073773D-03  .375166564481D-11  .000000000000D+00
      .510000000000D+02 -.110625000000D+03  .485163066132D-08  .273847175812D+01
     -.565126538277D-05  .167068976443D-01  .469945371151D-05  .515363788414D+04
      .288000000000D+06  .182539224625D-06  .171357602829D+01 -.894069671631D-07
      .940290904125D+00  .275687500000D+03  .146254585000D+01 -.809105131048D-08
     -.266796827444D-09  .100000000000D+01  .238400000000D+04  .000000000000D+00
      .200000000000D+01  .000000000000D+00 -.107102096081D-07  .510000000000D+02
      .280866000000D+06  .400000000000D+01
C24 2025 09 17 06 00 00  .277237151749D-03 -.243041142767D-10  .000000000000D+00
      .100000000000D+01  .315000000000D+02  .434125225915D-08 -.459300788407D-01
      .156182795763D-05  .698105548508D-03  .743567943573D-05  .528263158607D+04
      .280800000000D+06  .838190317154D-08 -.282119875146D+01  .107102096081D-07
      .944477503565D+00  .204500000000D+03  .666155365508D+00 -.696743307870D-08
      .467162316328D-09  .000000000000D+00  .102800000000D+04  .000000000000D+00
      .200000000000D+01  .000000000000D+00  .590000000000D-08  .590000000000D-08
      .280860000000D+06  .100000000000D+01
C14 2025 09 17 06 00 00 -.320737482980D-03 -.425561808015D-10  .000000000000D+00
      .100000000000D+01 -.974218750000D+02  .354407619643D-08  .209526555425D+01
     -.489037483931D-05  .113350339234D-02  .338815152645D-05  .528263303757D+04
      .280800000000D+06  .512227416039D-08  .137389717933D+01 -.144354999065D-07
      .982268042264D+00  .307968750000D+03  .157888045014D+00 -.688171522249D-08
     -.287511976028D-09  .000000000000D+00  .102800000000D+04  .000000000000D+00
      .200000000000D+01  .000000000000D+00  .700000000000D-08  .190000000000D-08
      .280860000000D+06  .000000000000D+00
C33 2025 09 17 06 00 00 -.973377027549D-03 -.367350594388D-11  .000000000000D+00
      .100000000000D+01 -.106312500000D+03  .344085761125D-08  .107676929080D+01
     -.518746674061D-05  .475976965390D-03  .340072438121D-05  .528263364220D+04
      .280800000000D+06 -.344589352608D-07  .136937293839D+01 -.405125319958D-07
      .983703865637D+00  .307671875000D+03  .781643904526D+00 -.685349976149D-08
     -.280368821344D-09  .000000000000D+00  .102800000000D+04  .000000000000D+00
      .200000000000D+01  .000000000000D+00 -.429000000000D-07 -.429000000000D-07
      .280860000000D+06  .100000000000D+01
C26 2025 09 17 06 00 00 -.523293390870D-03 -.577937697699D-11  .000000000000D+00
      .100000000000D+01  .366093750000D+02  .424910556373D-08  .633057007811D+00
      .159768387675D-05  .939875026233D-03  .791577622294D-05  .528265555191D+04
      .280800000000D+06  .558793544769D-08 -.284347736705D+01  .162981450558D-07
      .946127859486D+00  .193406250000D+03  .726560385299D+00 -.694921803425D-08
      .477877048354D-09  .000000000000D+00  .102800000000D+04  .000000000000D+00
      .200000000000D+01  .000000000000D+00 -.320000000000D-08 -.320000000000D-08
      .280860000000D+06  .100000000000D+01
C25 2025 09 17 06 00 00  .853619421832D-03  .114113163363D-10  .000000000000D+00
      .100000000000D+01  .246718750000D+02  .425374861428D-08 -.887310083867D+00
      .133225694299D-05  .586094101891D-03  .784965232015D-05  .528265602303D+04
      .280800000000D+06  .139698386192D-08 -.284410253192D+01  .107102096081D-07
      .946080607232D+00  .193109375000D+03  .675060289759D+00 -.692957435887D-08
      .488234622646D-09  .000000000000D+00  .102800000000D+04  .000000000000D+00
      .200000000000D+01  .000000000000D+00  .240000000000D-08  .240000000000D-08
      .280860000000D+06  .100000000000D+01
C13 2025 09 17 06 00 00 -.129290507175D-03 -.126547661239D-10  .000000000000D+00
      .100000000000D+01 -.352812500000D+02  .115004790411D-08 -.149535581388D+01
     -.123353675008D-05  .549542962108D-02 -.795628875494D-05  .649347433662D+04
      .280800000000D+06 -.340398401022D-06  .829363789028D+00 -.152271240950D-06
      .104422938307D+01  .516828125000D+03 -.232305615241D+01 -.258867925745D-08
      .960754304987D-10  .000000000000D+00  .102800000000D+04  .000000000000D+00
      .200000000000D+01  .000000000000D+00 -.980000000000D-08  .270000000000D-08
      .280860000000D+06  .000000000000D+00
C08 2025 09 17 06 00 00 -.887014204636D-03  .272626365927D-10  .000000000000D+00
      .100000000000D+01 -.530625000000D+02  .103932900651D-08 -.476578545809D+00
     -.208755955100D-05  .359889026731D-02 -.608107075095D-05  .649299492264D+04
      .280800000000D+06 -.291038304567D-06  .863862697680D+00 -.239349901676D-06
      .108226057910D+01  .466156250000D+03  .309075998663D+01 -.245938815767D-08
      .489306095849D-10  .000000000000D+00  .102800000000D+04  .000000000000D+00
      .200000000000D+01  .000000000000D+00  .110000000000D-07 -.700000000000D-09
      .280860000000D+06  .000000000000D+00
C06 2025 09 17 06 00 00  .905803753994D-03 -.343440831330D-10  .000000000000D+00
      .100000000000D+01 -.243750000000D+02  .100754196817D-08  .297747998139D+01
     -.581145286560D-06  .473452778533D-02  .224048271775D-04  .649388261604D+04
      .280800000000D+06 -.143889337778D-06  .300603606183D+01  .304542481899D-06
      .948279920236D+00 -.448312500000D+03 -.253621188048D+01 -.165506894026D-08
      .935038948125D-09  .000000000000D+00  .102800000000D+04  .000000000000D+00
      .200000000000D+01  .000000000000D+00  .840000000000D-08 -.150000000000D-08
      .280860000000D+06  .000000000000D+00
C16 2025 09 17 06 00 00 -.799312838353D-03 -.376862985263D-10  .000000000000D+00
      .100000000000D+01 -.233437500000D+02  .915752430479D-09  .274054304824D+01
     -.585801899433D-06  .909444317222D-02  .226884149015D-04  .649317245293D+04
      .280800000000D+06 -.140164047480D-06  .300594876951D+01  .266823917627D-06
      .963832041416D+00 -.452515625000D+03 -.216494664061D+01 -.159078054811D-08
      .943967891480D-09  .000000000000D+00  .102800000000D+04  .000000000000D+00
      .200000000000D+01  .000000000000D+00 -.270000000000D-08  .460000000000D-08
      .280860000000D+06  .000000000000D+00
C09 2025 09 17 06 00 00 -.131284934469D-03  .349604789562D-10  .000000000000D+00
      .100000000000D+01 -.461406250000D+02  .133541276816D-08  .246544463157D+01
     -.100629404187D-05  .143714104779D-01  .228201970458D-04  .649367590141D+04
      .280800000000D+06 -.102445483208D-07  .305295927919D+01 -.712927430868D-06
      .953540352749D+00 -.470125000000D+03 -.226334800681D+01 -.202651298383D-08
      .114611916904D-08  .000000000000D+00  .102800000000D+04  .000000000000D+00
      .200000000000D+01  .000000000000D+00  .650000000000D-08  .380000000000D-08
      .280860000000D+06  .000000000000D+00
G31 2025 09 17 07 59 44 -.191712286323D-03  .170530256582D-11  .000000000000D+00
      .640000000000D+02 -.834375000000D+01  .445268547222D-08 -.648256027380D-01
     -.270083546638D-06  .108065281529D-01  .103246420622D-04  .515372330666D+04
      .287984000000D+06 -.186264514923D-08  .295003807544D+01  .230967998505D-06
      .954906419800D+00  .178281250000D+03  .873562442879D+00 -.805033532878D-08
      .482520098899D-09  .100000000000D+01  .238400000000D+04  .000000000000D+00
      .200000000000D+01  .000000000000D+00 -.130385160446D-07  .640000000000D+02
      .281016000000D+06  .400000000000D+01
